NORAD_CAT_ID,OBJECT_NAME,OBJECT_TYPE,EPOCH,MEAN_MOTION,ECCENTRICITY,INCLINATION,RA_OF_ASC_NODE,ARG_OF_PERICENTER,MEAN_ANOMALY,BSTAR,MEAN_MOTION_DOT,MEAN_MOTION_DDOT,TLE_LINE0,TLE_LINE1,TLE_LINE2,SEMIMAJOR_AXIS,PERIOD,APOGEE,PERIGEE,DECAYED
53422.0,STARLINK-4546,PAYLOAD,2023-04-01 04:17:33,15.08842097,0.0001013,53.2135,253.3018,71.5634,288.5468,0.00038924,5.913e-05,0.0,0 STARLINK-4546,1 53422U 22097AL  23091.17886305  .00005913  00000-0  38924-3 0  9996,2 53422  53.2135 253.3018 0001013  71.5634 288.5468 15.08842097 36105,6917.874,95.437,540.44,539.038,0.0
53422.0,STARLINK-4546,PAYLOAD,2023-04-01 10:39:06,15.08836137,0.0002014,53.2144,252.1123,76.6836,283.4381,0.00010968,1.458e-05,0.0,0 STARLINK-4546,1 53422U 22097AL  23091.44382881  .00001458  00000-0  10968-3 0  9994,2 53422  53.2144 252.1123 0002014  76.6836 283.4381 15.08836137 36141,6917.892,95.438,541.15,538.364,0.0
53422.0,STARLINK-4546,PAYLOAD,2023-04-01 17:00:39,15.08830119,0.0001218,53.2145,250.9208,89.9312,270.1819,9.2731e-05,1.188e-05,0.0,0 STARLINK-4546,1 53422U 22097AL  23091.70879051  .00001188  00000-0  92731-4 0  9992,2 53422  53.2145 250.9208 0001218  89.9312 270.1819 15.08830119 36663,6917.911,95.438,540.618,538.933,0.0
53422.0,STARLINK-4546,PAYLOAD,2023-04-02 13:40:40,15.08847382,0.0001152,53.2139,247.0557,83.8726,276.2398,0.00075013,0.00011673,0.0,0 STARLINK-4546,1 53422U 22097AL  23092.56991260  .00011673  00000-0  75013-3 0  9997,2 53422  53.2139 247.0557 0001152  83.8726 276.2398 15.08847382 36792,6917.858,95.437,540.52,538.926,0.0
53422.0,STARLINK-4546,PAYLOAD,2023-04-02 15:16:03,15.08850503,0.0001191,53.2141,246.7585,81.695,278.4177,0.00093193,0.00014579,0.0,0 STARLINK-4546,1 53422U 22097AL  23092.63615279  .00014579  00000-0  93193-3 0  9995,2 53422  53.2141 246.7585 0001191  81.6950 278.4177 15.08850503 36327,6917.848,95.437,540.537,538.889,0.0
53422.0,STARLINK-4546,PAYLOAD,2023-04-02 16:51:26,15.08856819,0.0001059,53.2149,246.4608,88.0151,272.0962,0.0010948,0.00017187,0.0,0 STARLINK-4546,1 53422U 22097AL  23092.70239093  .00017187  00000-0  10948-2 0  9993,2 53422  53.2149 246.4608 0001059  88.0151 272.0962 15.08856819 36817,6917.829,95.436,540.427,538.961,0.0
53422.0,STARLINK-4546,PAYLOAD,2023-04-03 10:20:41,15.08852186,0.0001168,53.2147,243.1899,74.1715,285.9406,0.00063228,9.792e-05,0.0,0 STARLINK-4546,1 53422U 22097AL  23093.43103193  .00009792  00000-0  63228-3 0  9998,2 53422  53.2147 243.1899 0001168  74.1715 285.9406 15.08852186 36442,6917.843,95.437,540.516,538.9,0.0
53422.0,STARLINK-4546,PAYLOAD,2023-04-03 16:42:13,15.0884649,0.000116,53.2152,242.001,71.7026,288.4092,0.00036562,5.537e-05,0.0,0 STARLINK-4546,1 53422U 22097AL  23093.69599208  .00005537  00000-0  36562-3 0  9996,2 53422  53.2152 242.0010 0001160  71.7026 288.4092 15.08846490 36485,6917.861,95.437,540.528,538.923,0.0
53422.0,STARLINK-4546,PAYLOAD,2023-04-04 10:11:28,15.0883958,0.0001072,53.2156,238.7288,73.789,286.322,0.00036491,5.524e-05,0.0,0 STARLINK-4546,1 53422U 22097AL  23094.42463448  .00005524  00000-0  36491-3 0  9991,2 53422  53.2156 238.7288 0001072  73.7890 286.3220 15.08839580 36595,6917.882,95.438,540.488,539.005,0.0
53422.0,STARLINK-4546,PAYLOAD,2023-04-05 13:13:01,15.0884227,0.0001166,53.2165,233.6726,87.6849,272.4276,0.00024352,3.59e-05,0.0,0 STARLINK-4546,1 53422U 22097AL  23095.55071538  .00003590  00000-0  24352-3 0  9995,2 53422  53.2165 233.6726 0001166  87.6849 272.4276 15.08842270 37248,6917.873,95.437,540.545,538.932,0.0
53422.0,STARLINK-4546,PAYLOAD,2023-04-05 14:48:24,15.08842657,0.0001177,53.2159,233.3751,85.9451,274.1676,0.0001772,2.534e-05,0.0,0 STARLINK-4546,1 53422U 22097AL  23095.61695485  .00002534  00000-0  17720-3 0  9993,2 53422  53.2159 233.3751 0001177  85.9451 274.1676 15.08842657 36777,6917.872,95.437,540.552,538.923,0.0
53422.0,STARLINK-4546,PAYLOAD,2023-04-06 09:53:02,15.088397,0.0001285,53.2165,229.807,93.2052,266.9087,8.0527e-05,9.94e-06,0.0,0 STARLINK-4546,1 53422U 22097AL  23096.41183599  .00000994  00000-0  80527-4 0  9994,2 53422  53.2165 229.8070 0001285  93.2052 266.9087 15.08839700 37374,6917.881,95.438,540.635,538.857,0.0
53422.0,STARLINK-4546,PAYLOAD,2023-04-06 17:49:58,15.08846596,0.0001463,53.2172,228.3205,98.4773,261.6384,0.00019884,2.879e-05,0.0,0 STARLINK-4546,1 53422U 22097AL  23096.74303288  .00002879  00000-0  19884-3 0  9990,2 53422  53.2172 228.3205 0001463  98.4773 261.6384 15.08846596 36946,6917.86,95.437,540.737,538.713,0.0
53422.0,STARLINK-4546,PAYLOAD,2023-04-07 01:46:53,15.08839574,0.0001509,53.216,226.8323,93.8395,266.277,3.1804e-05,2.18e-06,0.0,0 STARLINK-4546,1 53422U 22097AL  23097.07423556  .00000218  00000-0  31804-4 0  9990,2 53422  53.2160 226.8323 0001509  93.8395 266.2770 15.08839574 36990,6917.882,95.438,540.791,538.703,0.0
53422.0,STARLINK-4546,PAYLOAD,2023-04-07 08:08:26,15.08840769,0.0001413,53.2158,225.6429,92.8914,267.224,6.5095e-05,7.48e-06,0.0,0 STARLINK-4546,1 53422U 22097AL  23097.33919583  .00000748  00000-0  65095-4 0  9996,2 53422  53.2158 225.6429 0001413  92.8914 267.2240 15.08840769 37511,6917.878,95.438,540.721,538.766,0.0
53422.0,STARLINK-4546,PAYLOAD,2023-04-08 12:45:22,15.088424,0.0001765,53.2139,220.2929,80.6665,279.4527,-2.1513e-05,-6.31e-06,0.0,0 STARLINK-4546,1 53422U 22097AL  23098.53151534 -.00000631  00000-0 -21513-4 0  9993,2 53422  53.2139 220.2929 0001765  80.6665 279.4527 15.08842400 37218,6917.873,95.437,540.959,538.517,0.0
53422.0,STARLINK-4546,PAYLOAD,2023-04-09 11:00:47,15.08841736,0.0001623,53.2151,216.1299,81.9167,278.2009,-1.6026e-05,-5.43e-06,0.0,0 STARLINK-4546,1 53422U 22097AL  23099.45887859 -.00000543  00000-0 -16026-4 0  9996,2 53422  53.2151 216.1299 0001623  81.9167 278.2009 15.08841736 37831,6917.875,95.437,540.863,538.617,0.0
53422.0,STARLINK-4546,PAYLOAD,2023-04-09 17:22:19,15.08844597,0.0001265,53.2153,214.9378,105.6516,254.4616,2.5715e-05,1.21e-06,0.0,0 STARLINK-4546,1 53422U 22097AL  23099.72383308  .00000121  00000-0  25715-4 0  9991,2 53422  53.2153 214.9378 0001265 105.6516 254.4616 15.08844597 37390,6917.866,95.437,540.606,538.856,0.0
53422.0,STARLINK-4546,PAYLOAD,2023-04-10 07:40:47,15.08836841,0.0001242,53.2148,212.2602,102.9734,257.1397,0.00011293,1.51e-05,0.0,0 STARLINK-4546,1 53422U 22097AL  23100.31999665  .00001510  00000-0  11293-3 0  9996,2 53422  53.2148 212.2602 0001242 102.9734 257.1397 15.08836841 37481,6917.89,95.438,540.614,538.896,0.0
53422.0,STARLINK-4546,PAYLOAD,2023-04-10 17:13:05,15.0885283,0.0001225,53.214,210.4749,109.8492,250.2632,0.00011433,1.533e-05,0.0,0 STARLINK-4546,1 53422U 22097AL  23100.71742475  .00001533  00000-0  11433-3 0  9996,2 53422  53.2140 210.4749 0001225 109.8492 250.2632 15.08852830 37542,6917.841,95.437,540.554,538.859,0.0
53422.0,STARLINK-4546,PAYLOAD,2023-04-11 12:17:43,15.08844926,0.0001259,53.215,206.908,109.2751,250.8377,8.1328e-05,1.007e-05,0.0,0 STARLINK-4546,1 53422U 22097AL  23101.51230907  .00001007  00000-0  81328-4 0  9994,2 53422  53.2150 206.9080 0001259 109.2751 250.8377 15.08844926 38146,6917.865,95.437,540.601,538.859,0.0
53422.0,STARLINK-4546,PAYLOAD,2023-04-12 13:43:53,15.08849292,9.79e-05,53.2154,202.152,104.2107,255.8994,9.0597e-05,1.155e-05,0.0,0 STARLINK-4546,1 53422U 22097AL  23102.57214594  .00001155  00000-0  90597-4 0  9997,2 53422  53.2154 202.1520 0000979 104.2107 255.8994 15.08849292 37820,6917.852,95.437,540.394,539.04,0.0
53422.0,STARLINK-4546,PAYLOAD,2023-04-13 05:37:45,15.08838104,6.2e-05,53.2169,199.1817,80.4359,279.6703,9.8374e-05,1.278e-05,0.0,0 STARLINK-4546,1 53422U 22097AL  23103.23455093  .00001278  00000-0  98374-4 0  9999,2 53422  53.2169 199.1817 0000620  80.4359 279.6703 15.08838104 38404,6917.886,95.438,540.18,539.322,0.0
53422.0,STARLINK-4546,PAYLOAD,2023-04-13 13:34:40,15.08843515,7.96e-05,53.2159,197.6914,90.5429,269.5654,3.7441e-05,3.08e-06,0.0,0 STARLINK-4546,1 53422U 22097AL  23103.56575046  .00000308  00000-0  37441-4 0  9997,2 53422  53.2159 197.6914 0000796  90.5429 269.5654 15.08843515 37974,6917.87,95.437,540.285,539.184,0.0
53422.0,STARLINK-4546,PAYLOAD,2023-04-14 11:50:05,15.08836402,0.0001285,53.2171,193.5289,99.6545,260.4592,-2.2617e-05,-6.48e-06,0.0,0 STARLINK-4546,1 53422U 22097AL  23104.49312225 -.00000648  00000-0 -22617-4 0  9996,2 53422  53.2171 193.5289 0001285  99.6545 260.4592 15.08836402 38598,6917.891,95.438,540.645,538.867,0.0
53422.0,STARLINK-4546,PAYLOAD,2023-04-15 05:19:20,15.08839508,8.31e-05,53.2143,190.2559,74.8989,285.2095,5.1464e-05,5.31e-06,0.0,0 STARLINK-4546,1 53422U 22097AL  23105.22175987  .00000531  00000-0  51464-4 0  9991,2 53422  53.2143 190.2559 0000831  74.8989 285.2095 15.08839508 38227,6917.882,95.438,540.322,539.172,0.0
53422.0,STARLINK-4546,PAYLOAD,2023-04-15 13:16:15,15.0884428,0.0001424,53.2163,188.7727,54.701,305.4115,0.00016947,2.411e-05,0.0,0 STARLINK-4546,1 53422U 22097AL  23105.55295598  .00002411  00000-0  16947-3 0  9993,2 53422  53.2163 188.7727 0001424  54.7010 305.4115 15.08844280 38758,6917.867,95.437,540.717,538.747,0.0
53422.0,STARLINK-4546,PAYLOAD,2023-04-16 11:31:39,15.08836915,0.0001532,53.2162,184.6094,39.1164,320.9939,0.00013982,1.938e-05,0.0,0 STARLINK-4546,1 53422U 22097AL  23106.48032250  .00001938  00000-0  13982-3 0  9999,2 53422  53.2162 184.6094 0001532  39.1164 320.9939 15.08836915 38893,6917.89,95.438,540.815,538.695,0.0
53422.0,STARLINK-4546,PAYLOAD,2023-04-16 14:42:25,15.08849006,0.000127,53.2152,184.0114,71.6957,288.4173,0.00016511,2.341e-05,0.0,0 STARLINK-4546,1 53422U 22097AL  23106.61279274  .00002341  00000-0  16511-3 0  9993,2 53422  53.2152 184.0114 0001270  71.6957 288.4173 15.08849006 38432,6917.853,95.437,540.596,538.839,0.0
53422.0,STARLINK-4546,PAYLOAD,2023-04-17 05:00:54,15.0884065,0.0001571,53.2158,181.3358,65.1204,294.9951,-4.876e-05,-1.064e-05,0.0,0 STARLINK-4546,1 53422U 22097AL  23107.20896639 -.00001064  00000-0 -48760-4 0  9994,2 53422  53.2158 181.3358 0001571  65.1204 294.9951 15.08840650 38527,6917.878,95.438,540.83,538.657,0.0
